GSAT0215 (GALILEO 19)   
1 43055U 17079A   26163.32294984  .00000060  00000+0  00000+0 0  9994
2 43055  55.0745 221.6406 0003305 265.8729  94.1848  1.70474566 52906
GSAT0216 (GALILEO 20)   
1 43056U 17079B   26161.26776505  .00000050  00000+0  00000+0 0  9999
2 43056  55.0753 221.6973 0003701 276.7573  83.2861  1.70474756 52885
GSAT0217 (GALILEO 21)   
1 43057U 17079C   26163.83489939  .00000061  00000+0  00000+0 0  9999
2 43057  55.0731 221.6247 0004463 283.7261  76.3221  1.70474017 52911
GSAT0218 (GALILEO 22)   
1 43058U 17079D   26162.29521692  .00000055  00000+0  00000+0 0  9995
2 43058  55.0734 221.6644 0004381 272.9557  87.0844  1.70474706 52918
BEIDOU-3 M7             
1 43107U 18003A   26163.51786711 -.00000069  00000+0  00000+0 0  9995
2 43107  54.3326 302.4785 0004908  93.1066 266.9324  1.86228217 57264
BEIDOU-3 M8             
1 43108U 18003B   26162.92575939 -.00000068  00000+0  00000+0 0  9997
2 43108  54.3258 302.4809 0002464 263.1764  96.7794  1.86231100 57260
BEIDOU-3 M4             
1 43207U 18018A   26160.14697391 -.00000046  00000+0  00000+0 0  9998
2 43207  56.6431  63.4146 0007688  17.0743 342.9760  1.86231351 56594
BEIDOU-3 M3             
1 43208U 18018B   26163.97214358 -.00000055  00000+0  00000+0 0  9991
2 43208  56.6466  63.2922 0008703 341.1081  18.8849  1.86231082 56664
BEIDOU-3 M9             
1 43245U 18029A   26163.65297359 -.00000068  00000+0  00000+0 0  9995
2 43245  54.1986 300.1083 0000893 146.7724 213.2166  1.86228237 55818
BEIDOU-3 M10            
1 43246U 18029B   26163.58735657 -.00000068  00000+0  00000+0 0  9996
2 43246  54.1961 300.1366 0003902  39.2234 320.7882  1.86229309 55799
IRNSS-1I                
1 43286U 18035A   26163.84582741  .00000073  00000+0  00000+0 0  9995
2 43286  28.7444  74.2643 0017867 181.7241   4.5323  1.00271122 30032
COSMOS 2527 [GLONASS-M] 
1 43508U 18053A   26161.98424862 -.00000028  00000+0  00000+0 0  9995
2 43508  65.5740  74.1146 0007392 241.2390 118.7028  2.13102302 62148
BEIDOU-2 IGSO-7         
1 43539U 18057A   26163.92794963  .00000023  00000+0  00000+0 0  9995
2 43539  55.1944 163.0954 0104897 237.8995 304.6030  1.00252210 29082
GSAT0221 (GALILEO 25)   
1 43564U 18060A   26161.61257961 -.00000063  00000+0  00000+0 0  9998
2 43564  57.1738 341.9578 0002678 307.2326  52.7584  1.70475913 49054
GSAT0222 (GALILEO 26)   
1 43565U 18060B   26163.00539104 -.00000067  00000+0  00000+0 0  9990
2 43565  57.1760 341.9240 0001918 251.7129 108.2786  1.70475625 49125
GSAT0219 (GALILEO 23)   
1 43566U 18060C   26163.22628845 -.00000068  00000+0  00000+0 0  9997
2 43566  57.1737 341.9194 0002141 327.3543  32.6441  1.70475845 49107
GSAT0220 (GALILEO 24)   
1 43567U 18060D   26162.86068590 -.00000067  00000+0  00000+0 0  9991
2 43567  57.1774 341.9298 0002252 315.5047  44.4900  1.70475609 49081
BEIDOU-3 M5             
1 43581U 18062A   26163.27453200  .00000125  00000+0  00000+0 0  9995
2 43581  54.0853 182.4712 0005548 288.5398  71.4632  1.86228535 53548
BEIDOU-3 M6             
1 43582U 18062B   26163.67493906  .00000122  00000+0  00000+0 0  9994
2 43582  54.0851 182.4468 0004877   9.6750 350.3966  1.86227626 53553
BEIDOU-3 M12            
1 43602U 18067A   26163.61333926  .00000122  00000+0  00000+0 0  9991
2 43602  54.1800 181.1956 0007719  30.1109 329.9936  1.86227819 53030
BEIDOU-3 M11            
1 43603U 18067B   26163.74839059  .00000121  00000+0  00000+0 0  9993
2 43603  54.1775 181.1545 0004426  13.3821 346.6892  1.86227237 53066
BEIDOU-3 M13            
1 43622U 18072A   26163.70322392 -.00000056  00000+0  00000+0 0  9991
2 43622  56.6206  62.8082 0007415 327.4825  32.4971  1.86231472 52577
BEIDOU-3 M14            
1 43623U 18072B   26164.10562094 -.00000056  00000+0  00000+0 0  9992
2 43623  56.6226  62.7894 0006152 359.0160   1.0091  1.86231430 52579
BEIDOU-3 M16            
1 43647U 18078A   26164.26100383 -.00000068  00000+0  00000+0 0  9993
2 43647  54.0937 300.1237 0007232  40.8705 319.1665  1.86232176 52080
BEIDOU-3 M15            
1 43648U 18078B   26163.85334519 -.00000068  00000+0  00000+0 0  9998
2 43648  54.0899 300.1384 0004241  57.4924 302.5317  1.86232293 52096
BEIDOU-3 G1             
1 43683U 18085A   26164.22326106 -.00000098  00000+0  00000+0 0  9993
2 43683   2.8568  97.4977 0008158 348.6556  55.7326  1.00270668 28027
COSMOS 2529 [GLONASS-M] 
1 43687U 18086A   26162.08081983  .00000119  00000+0  00000+0 0  9994
2 43687  64.2944 192.8006 0011774 256.0467 103.8983  2.13102175 59159
BEIDOU-3 M17            
1 43706U 18093A   26161.46407593  .00000127  00000+0  00000+0 0  9993
2 43706  54.1687 182.5246 0010075 291.4418 158.4113  1.86228347 51418
BEIDOU-3 M18            
1 43707U 18093B   26163.34119720  .00000125  00000+0  00000+0 0  9993
2 43707  54.1696 182.4530 0007900 320.5201  39.4855  1.86226356 51443
NAVSTAR 77 (USA 289)    
1 43873U 18109A   26164.17864632 -.00000023  00000+0  00000+0 0  9994
2 43873  55.6795  92.3452 0038159 198.0597 271.3624  2.00561338 54994
BEIDOU-3 IGSO-1         
1 44204U 19023A   26157.95428288 -.00000215  00000+0  00000+0 0  9993
2 44204  58.6799  37.7569 0025434 225.6649  92.8731  1.00294886  7105
